$$SOE
2461295.500000000, A.D. 2026-Sep-12 00:00:00.0000, -4.574441554923705E+08, -1.553586420906992E+08, 5.223060017907132E+07,
2461302.500000000, A.D. 2026-Sep-19 00:00:00.0000, -4.542275626940181E+08, -1.644899359008059E+08, 5.136441099536648E+07,
2461309.500000000, A.D. 2026-Sep-26 00:00:00.0000, -4.508186455322528E+08, -1.735515651858330E+08, 5.047647197039637E+07,
2461316.500000000, A.D. 2026-Oct-03 00:00:00.0000, -4.472187123279562E+08, -1.825396439775102E+08, 4.956714399803614E+07,
2461323.500000000, A.D. 2026-Oct-10 00:00:00.0000, -4.434291407825755E+08, -1.914503068028145E+08, 4.863679607958511E+07,
2461330.500000000, A.D. 2026-Oct-17 00:00:00.0000, -4.394513779676111E+08, -2.002797095375656E+08, 4.768580527605566E+07,
2461337.500000000, A.D. 2026-Oct-24 00:00:00.0000, -4.352869403277809E+08, -2.090240303677357E+08, 4.671455665264099E+07,
2461344.500000000, A.D. 2026-Oct-31 00:00:00.0000, -4.309374135984496E+08, -2.176794709258493E+08, 4.572344320086005E+07,
2461351.500000000, A.D. 2026-Nov-07 00:00:00.0000, -4.264044522975854E+08, -2.262422575290819E+08, 4.471286571337424E+07,
2461358.500000000, A.D. 2026-Nov-14 00:00:00.0000, -4.216897785904789E+08, -2.347086416322103E+08, 4.368323266562407E+07,
2461365.500000000, A.D. 2026-Nov-21 00:00:00.0000, -4.167951823376580E+08, -2.430748988141658E+08, 4.263496032618924E+07,
2461372.500000000, A.D. 2026-Nov-28 00:00:00.0000, -4.117225233231167E+08, -2.513373293076178E+08, 4.156847294165224E+07,
2461379.500000000, A.D. 2026-Dec-05 00:00:00.0000, -4.064737320436234E+08, -2.594922607294984E+08, 4.048420261065249E+07,
2461386.500000000, A.D. 2026-Dec-12 00:00:00.0000, -4.010508088941919E+08, -2.675360499018136E+08, 3.938258908655491E+07,
2461393.500000000, A.D. 2026-Dec-19 00:00:00.0000, -3.954558236355366E+08, -2.754650837561123E+08, 3.826407968241137E+07,
2461400.500000000, A.D. 2026-Dec-26 00:00:00.0000, -3.896909152841536E+08, -2.832757801902379E+08, 3.712912922026245E+07,
2461407.500000000, A.D. 2027-Jan-02 00:00:00.0000, -3.837582921482542E+08, -2.909645890696595E+08, 3.597819998383881E+07,
2461414.500000000, A.D. 2027-Jan-09 00:00:00.0000, -3.776602318926470E+08, -2.985279933546894E+08, 3.481176166560696E+07,
2461421.500000000, A.D. 2027-Jan-16 00:00:00.0000, -3.713990815978121E+08, -3.059625103459651E+08, 3.363029130564421E+07,
2461428.500000000, A.D. 2027-Jan-23 00:00:00.0000, -3.649772577679873E+08, -3.132646930888079E+08, 3.243427321481113E+07,
2461435.500000000, A.D. 2027-Jan-30 00:00:00.0000, -3.583972461014831E+08, -3.204311319850983E+08, 3.122419886094780E+07,
2461442.500000000, A.D. 2027-Feb-06 00:00:00.0000, -3.516616005994883E+08, -3.274584562731796E+08, 3.000056670670238E+07,
2461449.500000000, A.D. 2027-Feb-13 00:00:00.0000, -3.447729424742727E+08, -3.343433341559394E+08, 2.876388214056163E+07,
2461456.500000000, A.D. 2027-Feb-20 00:00:00.0000, -3.377339612201180E+08, -3.410824723673671E+08, 2.751465765274839E+07,
2461463.500000000, A.D. 2027-Feb-27 00:00:00.0000, -3.305474164498375E+08, -3.476726183911632E+08, 2.625341286477409E+07,
2461470.500000000, A.D. 2027-Mar-06 00:00:00.0000, -3.232161374776099E+08, -3.541105634092597E+08, 2.498067429254174E+07,
2461477.500000000, A.D. 2027-Mar-13 00:00:00.0000, -3.157430222465456E+08, -3.603931439309746E+08, 2.369697515688261E+07,
2461484.500000000, A.D. 2027-Mar-20 00:00:00.0000, -3.081310367281488E+08, -3.665172429380636E+08, 2.240285527651760E+07,
2461491.500000000, A.D. 2027-Mar-27 00:00:00.0000, -3.003832145899789E+08, -3.724797910960035E+08, 2.109886097972290E+07,
2461498.500000000, A.D. 2027-Apr-03 00:00:00.0000, -2.925026569278270E+08, -3.782777680808779E+08, 1.978554501194501E+07,
2461505.500000000, A.D. 2027-Apr-10 00:00:00.0000, -2.844925320009388E+08, -3.839082039999556E+08, 1.846346643545409E+07,
2461512.500000000, A.D. 2027-Apr-17 00:00:00.0000, -2.763560749478837E+08, -3.893681809206090E+08, 1.713319051767291E+07,
2461519.500000000, A.D. 2027-Apr-24 00:00:00.0000, -2.680965874030267E+08, -3.946548345694368E+08, 1.579528859562765E+07,
2461526.500000000, A.D. 2027-May-01 00:00:00.0000, -2.597174367126534E+08, -3.997653561731762E+08, 1.445033789106460E+07,
2461533.500000000, A.D. 2027-May-08 00:00:00.0000, -2.512220544417427E+08, -4.046969936921619E+08, 1.309892130894402E+07,
2461540.500000000, A.D. 2027-May-15 00:00:00.0000, -2.426139356661749E+08, -4.094470514915404E+08, 1.174162743422639E+07,
2461547.500000000, A.D. 2027-May-22 00:00:00.0000, -2.338966406114078E+08, -4.140128910405027E+08, 1.037905065824726E+07,
2461554.500000000, A.D. 2027-May-29 00:00:00.0000, -2.250737952790753E+08, -4.183919341077077E+08, 9.011791006652236E+06,
2461561.500000000, A.D. 2027-Jun-05 00:00:00.0000, -2.161490901748776E+08, -4.225816653214458E+08, 7.640453843624741E+06,
2461568.500000000, A.D. 2027-Jun-12 00:00:00.0000, -2.071262791434209E+08, -4.265796336622429E+08, 6.265649671823025E+06,
2461575.500000000, A.D. 2027-Jun-19 00:00:00.0000, -1.980091786387971E+08, -4.303834538220841E+08, 4.887993981973559E+06,
2461582.500000000, A.D. 2027-Jun-26 00:00:00.0000, -1.888016671491360E+08, -4.339908076909146E+08, 3.508107105126143E+06,
2461589.500000000, A.D. 2027-Jul-03 00:00:00.0000, -1.795076846407470E+08, -4.373994459618195E+08, 2.126614056114107E+06,
2461596.500000000, A.D. 2027-Jul-10 00:00:00.0000, -1.701312319831147E+08, -4.406071898461416E+08, 7.441443655675650E+05,
2461603.500000000, A.D. 2027-Jul-17 00:00:00.0000, -1.606763703169145E+08, -4.436119329372611E+08, -6.386681059773266E+05,
2461610.500000000, A.D. 2027-Jul-24 00:00:00.0000, -1.511472202072788E+08, -4.464116432852519E+08, -2.021185391294688E+06,
2461617.500000000, A.D. 2027-Jul-31 00:00:00.0000, -1.415479601694339E+08, -4.490043654458559E+08, -3.402765695464224E+06,
2461624.500000000, A.D. 2027-Aug-07 00:00:00.0000, -1.318828247658145E+08, -4.513882213505076E+08, -4.782763618130863E+06,
2461631.500000000, A.D. 2027-Aug-14 00:00:00.0000, -1.221561045737128E+08, -4.535614102484319E+08, -6.160530128781646E+06,
2461638.500000000, A.D. 2027-Aug-21 00:00:00.0000, -1.123721474024666E+08, -4.555222110828225E+08, -7.535412626918942E+06,
2461645.500000000, A.D. 2027-Aug-28 00:00:00.0000, -1.025353573266186E+08, -4.572689860970807E+08, -8.906755303758144E+06,
2461652.500000000, A.D. 2027-Sep-04 00:00:00.0000, -9.265019271449471E+07, -4.588001831681057E+08, -1.027389949289978E+07,
2461659.500000000, A.D. 2027-Sep-11 00:00:00.0000, -8.272116464587593E+07, -4.601143375262911E+08, -1.163618393638012E+07,
2461666.500000000, A.D. 2027-Sep-18 00:00:00.0000, -7.275283558374397E+07, -4.612100735101644E+08, -1.299294503184193E+07,
2461673.500000000, A.D. 2027-Sep-25 00:00:00.0000, -6.274981806923316E+07, -4.620861064307312E+08, -1.434351708859575E+07,
2461680.500000000, A.D. 2027-Oct-02 00:00:00.0000, -5.271677336251483E+07, -4.627412445153586E+08, -1.568723259766722E+07,
2461687.500000000, A.D. 2027-Oct-09 00:00:00.0000, -4.265841000492963E+07, -4.631743909334311E+08, -1.702342251872140E+07,
2461694.500000000, A.D. 2027-Oct-16 00:00:00.0000, -3.257948223743996E+07, -4.633845459566621E+08, -1.835141659453681E+07,
2461701.500000000, A.D. 2027-Oct-23 00:00:00.0000, -2.248478801444967E+07, -4.633708092573984E+08, -1.967054371760592E+07,
2461708.500000000, A.D. 2027-Oct-30 00:00:00.0000, -1.237916623764160E+07, -4.631323817312441E+08, -2.098013233348367E+07,
2461715.500000000, A.D. 2027-Nov-06 00:00:00.0000, -2.267494372503220E+06, -4.626685657110230E+08, -2.227951068196818E+07,
2461722.500000000, A.D. 2027-Nov-13 00:00:00.0000, 7.845311568876896E+06, -4.619787656420917E+08, -2.356800686362466E+07,
2461729.500000000, A.D. 2027-Nov-20 00:00:00.0000, 1.795429758406412E+07, -4.610624913996455E+08, -2.484494917644408E+07,
2461736.500000000, A.D. 2027-Nov-27 00:00:00.0000, 2.805447439662509E+07, -4.599193612812455E+08, -2.610966662883550E+07,
2461743.500000000, A.D. 2027-Dec-04 00:00:00.0000, 3.814082031107550E+07, -4.585491037595841E+08, -2.736148936879221E+07,
2461750.500000000, A.D. 2027-Dec-11 00:00:00.0000, 4.820828365665984E+07, -4.569515589579098E+08, -2.859974905757803E+07,
2461757.500000000, A.D. 2027-Dec-18 00:00:00.0000, 5.825178509496789E+07, -4.551266801846395E+08, -2.982377924081445E+07,
2461764.500000000, A.D. 2027-Dec-25 00:00:00.0000, 6.826621994314852E+07, -4.530745355255219E+08, -3.103291573091680E+07,
2461771.500000000, A.D. 2028-Jan-01 00:00:00.0000, 7.824646055419247E+07, -4.507953094739943E+08, -3.222649700323397E+07,
$$EOE